{
  "type": "FeatureCollection",
  "features": [
    {
      "type": "Feature",
      "properties": {
        "norad_id": 43262,
        "name": "GAOFEN-1 04",
        "group": "resource",
        "lat": 0.15669542698849961,
        "lon": -130.48023417479087,
        "alt_km": 643.8286507912126,
        "timestamp": "2025-12-17T15:50:09.434515+00:00",
        "meta_object_name": "GAOFEN-1 04",
        "meta_object_id": "2018-031D",
        "meta_epoch": "2025-12-17T08:31:07.069152",
        "meta_mean_motion": 14.7646073,
        "meta_eccentricity": 8.853e-05,
        "meta_inclination": 98.0808,
        "meta_ra_of_asc_node": 49.1925,
        "meta_arg_of_pericenter": 59.5287,
        "meta_mean_anomaly": 300.601,
        "meta_ephemeris_type": 0,
        "meta_classification_type": "U",
        "meta_norad_cat_id": 43262,
        "meta_element_set_no": 999,
        "meta_rev_at_epoch": 41585,
        "meta_bstar": 0.00013125041,
        "meta_mean_motion_dot": 8.61e-06,
        "meta_mean_motion_ddot": 0,
        "tle_line1": "1 43262U 18031D   25351.35494293  .00000861  00000+0  13125-3 0  9994",
        "tle_line2": "2 43262  98.0808  49.1925 0000885  59.5287 300.6010 14.76460730415850"
      },
      "geometry": {
        "type": "Point",
        "coordinates": [
          -130.48023417479087,
          0.15669542698849961
        ]
      }
    },
    {
      "type": "Feature",
      "properties": {
        "norad_id": 43437,
        "name": "SENTINEL-3B",
        "group": "resource",
        "lat": -7.1430957286019225,
        "lon": -124.31548739803493,
        "alt_km": 806.49697117902,
        "timestamp": "2025-12-17T15:50:09.434526+00:00",
        "meta_object_name": "SENTINEL-3B",
        "meta_object_id": "2018-039A",
        "meta_epoch": "2025-12-17T03:10:48.238464",
        "meta_mean_motion": 14.26735686,
        "meta_eccentricity": 0.00016265,
        "meta_inclination": 98.6264,
        "meta_ra_of_asc_node": 56.2549,
        "meta_arg_of_pericenter": 97.3948,
        "meta_mean_anomaly": 262.7417,
        "meta_ephemeris_type": 0,
        "meta_classification_type": "U",
        "meta_norad_cat_id": 43437,
        "meta_element_set_no": 999,
        "meta_rev_at_epoch": 39816,
        "meta_bstar": 6.8709058e-05,
        "meta_mean_motion_dot": 1.23e-06,
        "meta_mean_motion_ddot": 0,
        "tle_line1": "1 43437U 18039A   25351.13250276  .00000123  00000+0  68709-4 0  9993",
        "tle_line2": "2 43437  98.6264  56.2549 0001626  97.3948 262.7417 14.26735686398168"
      },
      "geometry": {
        "type": "Point",
        "coordinates": [
          -124.31548739803493,
          -7.1430957286019225
        ]
      }
    },
    {
      "type": "Feature",
      "properties": {
        "norad_id": 43461,
        "name": "GAOFEN-5 01",
        "group": "resource",
        "lat": 50.9697510715943,
        "lon": -55.83185693377344,
        "alt_km": 687.167527237817,
        "timestamp": "2025-12-17T15:50:09.434536+00:00",
        "meta_object_name": "GAOFEN-5 01",
        "meta_object_id": "2018-043A",
        "meta_epoch": "2025-12-17T07:22:41.297952",
        "meta_mean_motion": 14.60414862,
        "meta_eccentricity": 6.66e-05,
        "meta_inclination": 98.4331,
        "meta_ra_of_asc_node": 314.3545,
        "meta_arg_of_pericenter": 317.6322,
        "meta_mean_anomaly": 42.4826,
        "meta_ephemeris_type": 0,
        "meta_classification_type": "U",
        "meta_norad_cat_id": 43461,
        "meta_element_set_no": 999,
        "meta_rev_at_epoch": 40514,
        "meta_bstar": 9.127384e-05,
        "meta_mean_motion_dot": 3.93e-06,
        "meta_mean_motion_ddot": 0,
        "tle_line1": "1 43461U 18043A   25351.30742243  .00000393  00000+0  91274-4 0  9996",
        "tle_line2": "2 43461  98.4331 314.3545 0000666 317.6322  42.4826 14.60414862405141"
      },
      "geometry": {
        "type": "Point",
        "coordinates": [
          -55.83185693377344,
          50.9697510715943
        ]
      }
    },
    {
      "type": "Feature",
      "properties": {
        "norad_id": 43484,
        "name": "GAOFEN-6",
        "group": "resource",
        "lat": -27.167749895400082,
        "lon": 59.7973886350433,
        "alt_km": 643.7632459340812,
        "timestamp": "2025-12-17T15:50:09.434547+00:00",
        "meta_object_name": "GAOFEN-6",
        "meta_object_id": "2018-048A",
        "meta_epoch": "2025-12-17T07:49:40.673280",
        "meta_mean_motion": 14.76574014,
        "meta_eccentricity": 0.00130092,
        "meta_inclination": 97.8032,
        "meta_ra_of_asc_node": 55.4392,
        "meta_arg_of_pericenter": 50.0191,
        "meta_mean_anomaly": 310.216,
        "meta_ephemeris_type": 0,
        "meta_classification_type": "U",
        "meta_norad_cat_id": 43484,
        "meta_element_set_no": 999,
        "meta_rev_at_epoch": 40655,
        "meta_bstar": 6.0964581e-05,
        "meta_mean_motion_dot": 3.76e-06,
        "meta_mean_motion_ddot": 0,
        "tle_line1": "1 43484U 18048A   25351.32616520  .00000376  00000+0  60965-4 0  9990",
        "tle_line2": "2 43484  97.8032  55.4392 0013009  50.0191 310.2160 14.76574014406553"
      },
      "geometry": {
        "type": "Point",
        "coordinates": [
          59.7973886350433,
          -27.167749895400082
        ]
      }
    },
    {
      "type": "Feature",
      "properties": {
        "norad_id": 43585,
        "name": "GAOFEN-11 01",
        "group": "resource",
        "lat": -14.66565241558162,
        "lon": 56.438286629271055,
        "alt_km": 421.8975311456452,
        "timestamp": "2025-12-17T15:50:09.434558+00:00",
        "meta_object_name": "GAOFEN-11 01",
        "meta_object_id": "2018-063A",
        "meta_epoch": "2025-12-17T08:08:57.545952",
        "meta_mean_motion": 15.49350224,
        "meta_eccentricity": 0.00040834,
        "meta_inclination": 97.1562,
        "meta_ra_of_asc_node": 54.2363,
        "meta_arg_of_pericenter": 289.9058,
        "meta_mean_anomaly": 70.1754,
        "meta_ephemeris_type": 0,
        "meta_classification_type": "U",
        "meta_norad_cat_id": 43585,
        "meta_element_set_no": 999,
        "meta_rev_at_epoch": 41213,
        "meta_bstar": 0.00023240254,
        "meta_mean_motion_dot": 0.00012646,
        "meta_mean_motion_ddot": 0,
        "tle_line1": "1 43585U 18063A   25351.33955493  .00012646  00000+0  23240-3 0  9992",
        "tle_line2": "2 43585  97.1562  54.2363 0004083 289.9058  70.1754 15.49350224412136"
      },
      "geometry": {
        "type": "Point",
        "coordinates": [
          56.438286629271055,
          -14.66565241558162
        ]
      }
    },
    {
      "type": "Feature",
      "properties": {
        "norad_id": 43613,
        "name": "ICESAT-2",
        "group": "resource",
        "lat": 68.38031448062459,
        "lon": -123.00660695565503,
        "alt_km": 473.54578761413904,
        "timestamp": "2025-12-17T15:50:09.434568+00:00",
        "meta_object_name": "ICESAT-2",
        "meta_object_id": "2018-070A",
        "meta_epoch": "2025-12-17T06:06:30.360384",
        "meta_mean_motion": 15.28267412,
        "meta_eccentricity": 0.00026599,
        "meta_inclination": 92.0051,
        "meta_ra_of_asc_node": 241.9555,
        "meta_arg_of_pericenter": 130.6513,
        "meta_mean_anomaly": 229.4968,
        "meta_ephemeris_type": 0,
        "meta_classification_type": "U",
        "meta_norad_cat_id": 43613,
        "meta_element_set_no": 999,
        "meta_rev_at_epoch": 40467,
        "meta_bstar": 0.00037318909,
        "meta_mean_motion_dot": 0.00010276,
        "meta_mean_motion_ddot": 0,
        "tle_line1": "1 43613U 18070A   25351.25451806  .00010276  00000+0  37319-3 0  9991",
        "tle_line2": "2 43613  92.0051 241.9555 0002659 130.6513 229.4968 15.28267412404677"
      },
      "geometry": {
        "type": "Point",
        "coordinates": [
          -123.00660695565503,
          68.38031448062459
        ]
      }
    },
    {
      "type": "Feature",
      "properties": {
        "norad_id": 43719,
        "name": "HYSIS",
        "group": "resource",
        "lat": 44.401783067613295,
        "lon": 46.68735270748844,
        "alt_km": 628.9852469392717,
        "timestamp": "2025-12-17T15:50:09.434579+00:00",
        "meta_object_name": "HYSIS",
        "meta_object_id": "2018-096A",
        "meta_epoch": "2025-12-17T07:30:46.701792",
        "meta_mean_motion": 14.78657847,
        "meta_eccentricity": 0.00011816,
        "meta_inclination": 98.0098,
        "meta_ra_of_asc_node": 54.2686,
        "meta_arg_of_pericenter": 52.1071,
        "meta_mean_anomaly": 308.0246,
        "meta_ephemeris_type": 0,
        "meta_classification_type": "U",
        "meta_norad_cat_id": 43719,
        "meta_element_set_no": 999,
        "meta_rev_at_epoch": 38054,
        "meta_bstar": 0.00010935551,
        "meta_mean_motion_dot": 7.49e-06,
        "meta_mean_motion_ddot": 0,
        "tle_line1": "1 43719U 18096A   25351.31304053  .00000749  00000+0  10936-3 0  9994",
        "tle_line2": "2 43719  98.0098  54.2686 0001181  52.1071 308.0246 14.78657847380548"
      },
      "geometry": {
        "type": "Point",
        "coordinates": [
          46.68735270748844,
          44.401783067613295
        ]
      }
    }
  ]
}